[{"OBJECT_NAME":"ICEYE-X7","OBJECT_ID":"2020-068L","EPOCH":"2026-03-09T22:52:28.702272","MEAN_MOTION":15.29152508,"ECCENTRICITY":0.00068409,"INCLINATION":97.7412,"RA_OF_ASC_NODE":31.2076,"ARG_OF_PERICENTER":332.3045,"MEAN_ANOMALY":27.7829,"EPHEMERIS_TYPE":0,"CLASSIFICATION_TYPE":"U","NORAD_CAT_ID":46496,"ELEMENT_SET_NO":999,"REV_AT_EPOCH":29961,"BSTAR":0.0005654802,"MEAN_MOTION_DOT":0.00015947,"MEAN_MOTION_DDOT":0},{"OBJECT_NAME":"STARLINK-34680","OBJECT_ID":"2025-190F","EPOCH":"2026-03-09T12:18:48.694176","MEAN_MOTION":15.30211378,"ECCENTRICITY":0.00015025,"INCLINATION":53.1591,"RA_OF_ASC_NODE":169.3184,"ARG_OF_PERICENTER":147.6233,"MEAN_ANOMALY":212.486,"EPHEMERIS_TYPE":0,"CLASSIFICATION_TYPE":"U","NORAD_CAT_ID":65356,"ELEMENT_SET_NO":999,"REV_AT_EPOCH":2925,"BSTAR":0.0010535781,"MEAN_MOTION_DOT":0.00030986,"MEAN_MOTION_DDOT":0}]
